ONEWEB-0264             
1 48982U 21060R   26018.39428125  .00000000  00000+0 -32432-4 0  9999
2 48982  87.9023 258.6093 0001480  69.2878 290.8411 13.16596017219880
ONEWEB-0266             
1 48984U 21060T   26018.64365798  .00000071  00000+0  15105-3 0  9999
2 48984  87.9028 258.5482 0001408  86.0429 274.0863 13.16594808219901
ONEWEB-0267             
1 48985U 21060U   26018.65473858  .00000043  00000+0  79916-4 0  9998
2 48985  87.9025 258.5437 0001337  70.6995 289.4280 13.16595467219913
ONEWEB-0268             
1 48986U 21060V   26018.16708843  .00000114  00000+0  26574-3 0  9990
2 48986  87.9027 258.6501 0001501  76.5477 283.5821 13.16594739220113
ONEWEB-0269             
1 48987U 21060W   26018.60407023 -.00000053  00000+0 -17105-3 0  9990
2 48987  87.9018 258.5815 0001704  79.3293 280.8029 13.16596188219942
ONEWEB-0270             
1 48988U 21060X   26018.39350533 -.00000013  00000+0 -66606-4 0  9997
2 48988  87.9024 258.6067 0001055  75.0859 285.0388 13.16594880219953
ONEWEB-0271             
1 48989U 21060Y   26018.60882872  .00000018  00000+0  13045-4 0  9990
2 48989  87.9030 258.5536 0001300  71.5944 288.5328 13.16595453219982
ONEWEB-0272             
1 48990U 21060Z   26018.40299893  .00000083  00000+0  18364-3 0  9995
2 48990  87.9022 258.6076 0001501  69.5769 290.5523 13.16594917219906
ONEWEB-0273             
1 48991U 21060AA  26018.65316257  .00000106  00000+0  24346-3 0  9990
2 48991  87.9029 258.5552 0001277  76.7852 283.3421 13.16595745219913
ONEWEB-0274             
1 48992U 21060AB  26018.60249335 -.00000020  00000+0 -84895-4 0  9991
2 48992  87.9018 258.5837 0001690  68.7500 291.3811 13.16595294219942
ONEWEB-0275             
1 48993U 21060AC  26018.59140840  .00000009  00000+0 -95061-5 0  9995
2 48993  87.9027 258.5603 0001437  74.0562 286.0727 13.16594935219871
ONEWEB-0276             
1 48994U 21060AD  26018.39667054  .00000030  00000+0  43832-4 0  9996
2 48994  87.9026 258.5989 0001314  83.4599 276.6682 13.16594498219864
ONEWEB-0277             
1 48995U 21060AE  26018.63731749 -.00000867  00000+0 -23027-2 0  9999
2 48995  87.9013 258.5714 0001446  77.1937 282.9355 13.16588879219884
ONEWEB-0278             
1 48996U 21060AF  26018.39983659  .00000053  00000+0  10441-3 0  9994
2 48996  87.9026 258.5948 0001514  87.5326 272.5978 13.16595369219980
ONEWEB-0279             
1 48997U 21060AG  26018.55974212  .00000053  00000+0  10508-3 0  9992
2 48997  87.9028 258.5615 0001367  67.7544 292.3732 13.16595453219939
ONEWEB-0280             
1 48998U 21060AH  26018.65078081  .00000124  00000+0  29060-3 0  9995
2 48998  87.9026 258.5489 0001146  88.9472 271.1790 13.16593775219885
