[{"OBJECT_NAME":"ONEWEB-0264","OBJECT_ID":"2021-060R","EPOCH":"2026-01-18T09:27:45.900000","MEAN_MOTION":13.16596017,"ECCENTRICITY":0.00014803,"INCLINATION":87.9023,"RA_OF_ASC_NODE":258.6093,"ARG_OF_PERICENTER":69.2878,"MEAN_ANOMALY":290.8411,"EPHEMERIS_TYPE":0,"CLASSIFICATION_TYPE":"U","NORAD_CAT_ID":48982,"ELEMENT_SET_NO":999,"REV_AT_EPOCH":21988,"BSTAR":-3.2431757e-5,"MEAN_MOTION_DOT":0,"MEAN_MOTION_DDOT":0},{"OBJECT_NAME":"ONEWEB-0266","OBJECT_ID":"2021-060T","EPOCH":"2026-01-18T15:26:52.049472","MEAN_MOTION":13.16594808,"ECCENTRICITY":0.00014082,"INCLINATION":87.9028,"RA_OF_ASC_NODE":258.5482,"ARG_OF_PERICENTER":86.0429,"MEAN_ANOMALY":274.0863,"EPHEMERIS_TYPE":0,"CLASSIFICATION_TYPE":"U","NORAD_CAT_ID":48984,"ELEMENT_SET_NO":999,"REV_AT_EPOCH":21990,"BSTAR":0.00015105169,"MEAN_MOTION_DOT":7.1e-7,"MEAN_MOTION_DDOT":0},{"OBJECT_NAME":"ONEWEB-0267","OBJECT_ID":"2021-060U","EPOCH":"2026-01-18T15:42:49.413312","MEAN_MOTION":13.16595467,"ECCENTRICITY":0.00013371,"INCLINATION":87.9025,"RA_OF_ASC_NODE":258.5437,"ARG_OF_PERICENTER":70.6995,"MEAN_ANOMALY":289.428,"EPHEMERIS_TYPE":0,"CLASSIFICATION_TYPE":"U","NORAD_CAT_ID":48985,"ELEMENT_SET_NO":999,"REV_AT_EPOCH":21991,"BSTAR":7.9916401e-5,"MEAN_MOTION_DOT":4.3e-7,"MEAN_MOTION_DDOT":0},{"OBJECT_NAME":"ONEWEB-0268","OBJECT_ID":"2021-060V","EPOCH":"2026-01-18T04:00:36.440352","MEAN_MOTION":13.16594739,"ECCENTRICITY":0.00015011,"INCLINATION":87.9027,"RA_OF_ASC_NODE":258.6501,"ARG_OF_PERICENTER":76.5477,"MEAN_ANOMALY":283.5821,"EPHEMERIS_TYPE":0,"CLASSIFICATION_TYPE":"U","NORAD_CAT_ID":48986,"ELEMENT_SET_NO":999,"REV_AT_EPOCH":22011,"BSTAR":0.00026574301,"MEAN_MOTION_DOT":1.14e-6,"MEAN_MOTION_DDOT":0},{"OBJECT_NAME":"ONEWEB-0269","OBJECT_ID":"2021-060W","EPOCH":"2026-01-18T14:29:51.667872","MEAN_MOTION":13.16596188,"ECCENTRICITY":0.00017041,"INCLINATION":87.9018,"RA_OF_ASC_NODE":258.5815,"ARG_OF_PERICENTER":79.3293,"MEAN_ANOMALY":280.8029,"EPHEMERIS_TYPE":0,"CLASSIFICATION_TYPE":"U","NORAD_CAT_ID":48987,"ELEMENT_SET_NO":999,"REV_AT_EPOCH":21994,"BSTAR":-0.00017104567,"MEAN_MOTION_DOT":-5.3e-7,"MEAN_MOTION_DDOT":0},{"OBJECT_NAME":"ONEWEB-0270","OBJECT_ID":"2021-060X","EPOCH":"2026-01-18T09:26:38.860512","MEAN_MOTION":13.1659488,"ECCENTRICITY":0.00010558,"INCLINATION":87.9024,"RA_OF_ASC_NODE":258.6067,"ARG_OF_PERICENTER":75.0859,"MEAN_ANOMALY":285.0388,"EPHEMERIS_TYPE":0,"CLASSIFICATION_TYPE":"U","NORAD_CAT_ID":48988,"ELEMENT_SET_NO":999,"REV_AT_EPOCH":21995,"BSTAR":-6.6606474e-5,"MEAN_MOTION_DOT":-1.3e-7,"MEAN_MOTION_DDOT":0},{"OBJECT_NAME":"ONEWEB-0271","OBJECT_ID":"2021-060Y","EPOCH":"2026-01-18T14:36:42.801408","MEAN_MOTION":13.16595453,"ECCENTRICITY":0.00013008,"INCLINATION":87.903,"RA_OF_ASC_NODE":258.5536,"ARG_OF_PERICENTER":71.5944,"MEAN_ANOMALY":288.5328,"EPHEMERIS_TYPE":0,"CLASSIFICATION_TYPE":"U","NORAD_CAT_ID":48989,"ELEMENT_SET_NO":999,"REV_AT_EPOCH":21998,"BSTAR":1.3044913e-5,"MEAN_MOTION_DOT":1.8e-7,"MEAN_MOTION_DDOT":0},{"OBJECT_NAME":"ONEWEB-0272","OBJECT_ID":"2021-060Z","EPOCH":"2026-01-18T09:40:19.107552","MEAN_MOTION":13.16594917,"ECCENTRICITY":0.00015014,"INCLINATION":87.9022,"RA_OF_ASC_NODE":258.6076,"ARG_OF_PERICENTER":69.5769,"MEAN_ANOMALY":290.5523,"EPHEMERIS_TYPE":0,"CLASSIFICATION_TYPE":"U","NORAD_CAT_ID":48990,"ELEMENT_SET_NO":999,"REV_AT_EPOCH":21990,"BSTAR":0.00018363992,"MEAN_MOTION_DOT":8.3e-7,"MEAN_MOTION_DDOT":0},{"OBJECT_NAME":"ONEWEB-0273","OBJECT_ID":"2021-060AA","EPOCH":"2026-01-18T15:40:33.246048","MEAN_MOTION":13.16595745,"ECCENTRICITY":0.00012771,"INCLINATION":87.9029,"RA_OF_ASC_NODE":258.5552,"ARG_OF_PERICENTER":76.7852,"MEAN_ANOMALY":283.3421,"EPHEMERIS_TYPE":0,"CLASSIFICATION_TYPE":"U","NORAD_CAT_ID":48991,"ELEMENT_SET_NO":999,"REV_AT_EPOCH":21991,"BSTAR":0.00024345966,"MEAN_MOTION_DOT":1.06e-6,"MEAN_MOTION_DDOT":0},{"OBJECT_NAME":"ONEWEB-0274","OBJECT_ID":"2021-060AB","EPOCH":"2026-01-18T14:27:35.425440","MEAN_MOTION":13.16595294,"ECCENTRICITY":0.00016908,"INCLINATION":87.9018,"RA_OF_ASC_NODE":258.5837,"ARG_OF_PERICENTER":68.75,"MEAN_ANOMALY":291.3811,"EPHEMERIS_TYPE":0,"CLASSIFICATION_TYPE":"U","NORAD_CAT_ID":48992,"ELEMENT_SET_NO":999,"REV_AT_EPOCH":21994,"BSTAR":-8.4894666e-5,"MEAN_MOTION_DOT":-2.0e-7,"MEAN_MOTION_DDOT":0},{"OBJECT_NAME":"ONEWEB-0275","OBJECT_ID":"2021-060AC","EPOCH":"2026-01-18T14:11:37.685760","MEAN_MOTION":13.16594935,"ECCENTRICITY":0.00014377,"INCLINATION":87.9027,"RA_OF_ASC_NODE":258.5603,"ARG_OF_PERICENTER":74.0562,"MEAN_ANOMALY":286.0727,"EPHEMERIS_TYPE":0,"CLASSIFICATION_TYPE":"U","NORAD_CAT_ID":48993,"ELEMENT_SET_NO":999,"REV_AT_EPOCH":21987,"BSTAR":-9.506074e-6,"MEAN_MOTION_DOT":9.0e-8,"MEAN_MOTION_DDOT":0},{"OBJECT_NAME":"ONEWEB-0276","OBJECT_ID":"2021-060AD","EPOCH":"2026-01-18T09:31:12.334656","MEAN_MOTION":13.16594498,"ECCENTRICITY":0.00013142,"INCLINATION":87.9026,"RA_OF_ASC_NODE":258.5989,"ARG_OF_PERICENTER":83.4599,"MEAN_ANOMALY":276.6682,"EPHEMERIS_TYPE":0,"CLASSIFICATION_TYPE":"U","NORAD_CAT_ID":48994,"ELEMENT_SET_NO":999,"REV_AT_EPOCH":21986,"BSTAR":4.383172e-5,"MEAN_MOTION_DOT":3.0e-7,"MEAN_MOTION_DDOT":0},{"OBJECT_NAME":"ONEWEB-0277","OBJECT_ID":"2021-060AE","EPOCH":"2026-01-18T15:17:44.231136","MEAN_MOTION":13.16588879,"ECCENTRICITY":0.00014466,"INCLINATION":87.9013,"RA_OF_ASC_NODE":258.5714,"ARG_OF_PERICENTER":77.1937,"MEAN_ANOMALY":282.9355,"EPHEMERIS_TYPE":0,"CLASSIFICATION_TYPE":"U","NORAD_CAT_ID":48995,"ELEMENT_SET_NO":999,"REV_AT_EPOCH":21988,"BSTAR":-0.0023027235,"MEAN_MOTION_DOT":-8.67e-6,"MEAN_MOTION_DDOT":0},{"OBJECT_NAME":"ONEWEB-0278","OBJECT_ID":"2021-060AF","EPOCH":"2026-01-18T09:35:45.881376","MEAN_MOTION":13.16595369,"ECCENTRICITY":0.00015146,"INCLINATION":87.9026,"RA_OF_ASC_NODE":258.5948,"ARG_OF_PERICENTER":87.5326,"MEAN_ANOMALY":272.5978,"EPHEMERIS_TYPE":0,"CLASSIFICATION_TYPE":"U","NORAD_CAT_ID":48996,"ELEMENT_SET_NO":999,"REV_AT_EPOCH":21998,"BSTAR":0.00010441117,"MEAN_MOTION_DOT":5.3e-7,"MEAN_MOTION_DDOT":0},{"OBJECT_NAME":"ONEWEB-0279","OBJECT_ID":"2021-060AG","EPOCH":"2026-01-18T13:26:01.719168","MEAN_MOTION":13.16595453,"ECCENTRICITY":0.00013677,"INCLINATION":87.9028,"RA_OF_ASC_NODE":258.5615,"ARG_OF_PERICENTER":67.7544,"MEAN_ANOMALY":292.3732,"EPHEMERIS_TYPE":0,"CLASSIFICATION_TYPE":"U","NORAD_CAT_ID":48997,"ELEMENT_SET_NO":999,"REV_AT_EPOCH":21993,"BSTAR":0.00010508007,"MEAN_MOTION_DOT":5.3e-7,"MEAN_MOTION_DDOT":0},{"OBJECT_NAME":"ONEWEB-0280","OBJECT_ID":"2021-060AH","EPOCH":"2026-01-18T15:37:07.461984","MEAN_MOTION":13.16593775,"ECCENTRICITY":0.00011461,"INCLINATION":87.9026,"RA_OF_ASC_NODE":258.5489,"ARG_OF_PERICENTER":88.9472,"MEAN_ANOMALY":271.179,"EPHEMERIS_TYPE":0,"CLASSIFICATION_TYPE":"U","NORAD_CAT_ID":48998,"ELEMENT_SET_NO":999,"REV_AT_EPOCH":21988,"BSTAR":0.00029059556,"MEAN_MOTION_DOT":1.24e-6,"MEAN_MOTION_DDOT":0}]
